[{"OBJECT_NAME":"AMC-3","OBJECT_ID":"1997-050A","EPOCH":"2026-04-03T21:02:29.976576","MEAN_MOTION":1.0026529,"ECCENTRICITY":0.00036531,"INCLINATION":7.965,"RA_OF_ASC_NODE":64.9211,"ARG_OF_PERICENTER":297.8149,"MEAN_ANOMALY":73.0793,"EPHEMERIS_TYPE":0,"CLASSIFICATION_TYPE":"U","NORAD_CAT_ID":24936,"ELEMENT_SET_NO":999,"REV_AT_EPOCH":5169,"BSTAR":0,"MEAN_MOTION_DOT":-2.6e-6,"MEAN_MOTION_DDOT":0},{"OBJECT_NAME":"NSS-11","OBJECT_ID":"2000-059A","EPOCH":"2026-04-04T03:21:18.690624","MEAN_MOTION":1.00273314,"ECCENTRICITY":0.00031387,"INCLINATION":1.9356,"RA_OF_ASC_NODE":82.2517,"ARG_OF_PERICENTER":294.6691,"MEAN_ANOMALY":41.8642,"EPHEMERIS_TYPE":0,"CLASSIFICATION_TYPE":"U","NORAD_CAT_ID":26554,"ELEMENT_SET_NO":999,"REV_AT_EPOCH":4054,"BSTAR":0,"MEAN_MOTION_DOT":2.5e-7,"MEAN_MOTION_DDOT":0},{"OBJECT_NAME":"AMC-6","OBJECT_ID":"2000-067A","EPOCH":"2026-04-04T05:50:07.556928","MEAN_MOTION":1.00273642,"ECCENTRICITY":0.00037226,"INCLINATION":0.0616,"RA_OF_ASC_NODE":57.1778,"ARG_OF_PERICENTER":331.2414,"MEAN_ANOMALY":116.6176,"EPHEMERIS_TYPE":0,"CLASSIFICATION_TYPE":"U","NORAD_CAT_ID":26580,"ELEMENT_SET_NO":999,"REV_AT_EPOCH":9315,"BSTAR":0,"MEAN_MOTION_DOT":8.8e-7,"MEAN_MOTION_DDOT":0},{"OBJECT_NAME":"AMC-11","OBJECT_ID":"2004-017A","EPOCH":"2026-04-04T05:24:44.351712","MEAN_MOTION":1.00273013,"ECCENTRICITY":0.00032978,"INCLINATION":0.1197,"RA_OF_ASC_NODE":80.1669,"ARG_OF_PERICENTER":303.0493,"MEAN_ANOMALY":139.4139,"EPHEMERIS_TYPE":0,"CLASSIFICATION_TYPE":"U","NORAD_CAT_ID":28252,"ELEMENT_SET_NO":999,"REV_AT_EPOCH":8012,"BSTAR":0,"MEAN_MOTION_DOT":-5.0e-7,"MEAN_MOTION_DDOT":0},{"OBJECT_NAME":"AMC-15","OBJECT_ID":"2004-041A","EPOCH":"2026-04-04T05:26:29.185152","MEAN_MOTION":1.00272345,"ECCENTRICITY":0.00022359,"INCLINATION":0.0505,"RA_OF_ASC_NODE":49.4881,"ARG_OF_PERICENTER":324.6186,"MEAN_ANOMALY":155.0137,"EPHEMERIS_TYPE":0,"CLASSIFICATION_TYPE":"U","NORAD_CAT_ID":28446,"ELEMENT_SET_NO":999,"REV_AT_EPOCH":7856,"BSTAR":0,"MEAN_MOTION_DOT":-8.9e-7,"MEAN_MOTION_DDOT":0},{"OBJECT_NAME":"NSS-10","OBJECT_ID":"2005-003A","EPOCH":"2026-04-04T05:19:38.595936","MEAN_MOTION":1.00272043,"ECCENTRICITY":0.00032464,"INCLINATION":6.2653,"RA_OF_ASC_NODE":71.3359,"ARG_OF_PERICENTER":300.3369,"MEAN_ANOMALY":223.3295,"EPHEMERIS_TYPE":0,"CLASSIFICATION_TYPE":"U","NORAD_CAT_ID":28526,"ELEMENT_SET_NO":999,"REV_AT_EPOCH":5241,"BSTAR":0,"MEAN_MOTION_DOT":-2.5e-6,"MEAN_MOTION_DDOT":0},{"OBJECT_NAME":"ASTRA 1KR","OBJECT_ID":"2006-012A","EPOCH":"2026-04-04T04:39:38.850624","MEAN_MOTION":1.00270424,"ECCENTRICITY":0.00035973,"INCLINATION":0.2831,"RA_OF_ASC_NODE":82.1372,"ARG_OF_PERICENTER":288.3113,"MEAN_ANOMALY":270.9694,"EPHEMERIS_TYPE":0,"CLASSIFICATION_TYPE":"U","NORAD_CAT_ID":29055,"ELEMENT_SET_NO":999,"REV_AT_EPOCH":4495,"BSTAR":0,"MEAN_MOTION_DOT":1.18e-6,"MEAN_MOTION_DDOT":0},{"OBJECT_NAME":"ASTRA 1L","OBJECT_ID":"2007-016A","EPOCH":"2026-04-04T05:11:38.889312","MEAN_MOTION":1.00272871,"ECCENTRICITY":0.00043665,"INCLINATION":1.1308,"RA_OF_ASC_NODE":82.0893,"ARG_OF_PERICENTER":310.2435,"MEAN_ANOMALY":213.5892,"EPHEMERIS_TYPE":0,"CLASSIFICATION_TYPE":"U","NORAD_CAT_ID":31306,"ELEMENT_SET_NO":999,"REV_AT_EPOCH":4424,"BSTAR":0,"MEAN_MOTION_DOT":-1.84e-6,"MEAN_MOTION_DDOT":0},{"OBJECT_NAME":"ASTRA 4A","OBJECT_ID":"2007-057A","EPOCH":"2026-04-04T04:15:06.032160","MEAN_MOTION":1.00270767,"ECCENTRICITY":0.00026527,"INCLINATION":0.0506,"RA_OF_ASC_NODE":56.2673,"ARG_OF_PERICENTER":326.3912,"MEAN_ANOMALY":238.4181,"EPHEMERIS_TYPE":0,"CLASSIFICATION_TYPE":"U","NORAD_CAT_ID":32299,"ELEMENT_SET_NO":999,"REV_AT_EPOCH":5090,"BSTAR":0,"MEAN_MOTION_DOT":3.2e-7,"MEAN_MOTION_DDOT":0},{"OBJECT_NAME":"ASTRA 1M","OBJECT_ID":"2008-057A","EPOCH":"2026-04-04T04:39:38.850624","MEAN_MOTION":1.0027198,"ECCENTRICITY":0.00028774,"INCLINATION":0.108,"RA_OF_ASC_NODE":75.0102,"ARG_OF_PERICENTER":355.4284,"MEAN_ANOMALY":211.3457,"EPHEMERIS_TYPE":0,"CLASSIFICATION_TYPE":"U","NORAD_CAT_ID":33436,"ELEMENT_SET_NO":999,"REV_AT_EPOCH":4499,"BSTAR":0,"MEAN_MOTION_DOT":1.2e-6,"MEAN_MOTION_DDOT":0},{"OBJECT_NAME":"NSS-9","OBJECT_ID":"2009-008A","EPOCH":"2026-04-04T04:35:38.555808","MEAN_MOTION":1.00272171,"ECCENTRICITY":0.00022349,"INCLINATION":1.0706,"RA_OF_ASC_NODE":83.3077,"ARG_OF_PERICENTER":282.9627,"MEAN_ANOMALY":78.2066,"EPHEMERIS_TYPE":0,"CLASSIFICATION_TYPE":"U","NORAD_CAT_ID":33749,"ELEMENT_SET_NO":999,"REV_AT_EPOCH":6277,"BSTAR":0,"MEAN_MOTION_DOT":7.2e-7,"MEAN_MOTION_DDOT":0},{"OBJECT_NAME":"SES-7 (PROTOSTAR 2)","OBJECT_ID":"2009-027A","EPOCH":"2026-04-03T23:36:40.237920","MEAN_MOTION":1.00272821,"ECCENTRICITY":0.00020322,"INCLINATION":0.089,"RA_OF_ASC_NODE":78.2732,"ARG_OF_PERICENTER":241.555,"MEAN_ANOMALY":334.8897,"EPHEMERIS_TYPE":0,"CLASSIFICATION_TYPE":"U","NORAD_CAT_ID":34941,"ELEMENT_SET_NO":999,"REV_AT_EPOCH":6188,"BSTAR":0,"MEAN_MOTION_DOT":-3.46e-6,"MEAN_MOTION_DDOT":0},{"OBJECT_NAME":"NSS-12","OBJECT_ID":"2009-058A","EPOCH":"2026-04-04T04:30:04.595616","MEAN_MOTION":1.00271262,"ECCENTRICITY":0.0005061,"INCLINATION":0.073,"RA_OF_ASC_NODE":61.1201,"ARG_OF_PERICENTER":297.356,"MEAN_ANOMALY":318.548,"EPHEMERIS_TYPE":0,"CLASSIFICATION_TYPE":"U","NORAD_CAT_ID":36032,"ELEMENT_SET_NO":999,"REV_AT_EPOCH":6017,"BSTAR":0,"MEAN_MOTION_DOT":7.1e-7,"MEAN_MOTION_DDOT":0},{"OBJECT_NAME":"SES-1","OBJECT_ID":"2010-016A","EPOCH":"2026-04-04T05:27:36.577152","MEAN_MOTION":1.00269677,"ECCENTRICITY":0.00027787,"INCLINATION":0.0298,"RA_OF_ASC_NODE":283.2188,"ARG_OF_PERICENTER":95.1114,"MEAN_ANOMALY":155.1032,"EPHEMERIS_TYPE":0,"CLASSIFICATION_TYPE":"U","NORAD_CAT_ID":36516,"ELEMENT_SET_NO":999,"REV_AT_EPOCH":5829,"BSTAR":0,"MEAN_MOTION_DOT":-1.15e-6,"MEAN_MOTION_DDOT":0},{"OBJECT_NAME":"ASTRA 3B","OBJECT_ID":"2010-021A","EPOCH":"2026-04-04T04:39:38.850624","MEAN_MOTION":1.00272298,"ECCENTRICITY":0.00035856,"INCLINATION":1.278,"RA_OF_ASC_NODE":84.4359,"ARG_OF_PERICENTER":305.4312,"MEAN_ANOMALY":256.0405,"EPHEMERIS_TYPE":0,"CLASSIFICATION_TYPE":"U","NORAD_CAT_ID":36581,"ELEMENT_SET_NO":999,"REV_AT_EPOCH":5812,"BSTAR":0,"MEAN_MOTION_DOT":1.37e-6,"MEAN_MOTION_DDOT":0},{"OBJECT_NAME":"SES-3","OBJECT_ID":"2011-035A","EPOCH":"2026-04-04T06:28:07.867200","MEAN_MOTION":1.00271481,"ECCENTRICITY":0.00034599,"INCLINATION":1.1356,"RA_OF_ASC_NODE":83.8548,"ARG_OF_PERICENTER":295.3828,"MEAN_ANOMALY":167.3741,"EPHEMERIS_TYPE":0,"CLASSIFICATION_TYPE":"U","NORAD_CAT_ID":37748,"ELEMENT_SET_NO":999,"REV_AT_EPOCH":5385,"BSTAR":0,"MEAN_MOTION_DOT":-1.02e-6,"MEAN_MOTION_DDOT":0},{"OBJECT_NAME":"ASTRA 1N","OBJECT_ID":"2011-041A","EPOCH":"2026-04-04T02:09:38.651616","MEAN_MOTION":1.00269556,"ECCENTRICITY":0.00050447,"INCLINATION":0.0874,"RA_OF_ASC_NODE":41.2005,"ARG_OF_PERICENTER":359.6758,"MEAN_ANOMALY":203.1299,"EPHEMERIS_TYPE":0,"CLASSIFICATION_TYPE":"U","NORAD_CAT_ID":37775,"ELEMENT_SET_NO":999,"REV_AT_EPOCH":4378,"BSTAR":0,"MEAN_MOTION_DOT":1.19e-6,"MEAN_MOTION_DDOT":0}]
